P/2019 LD2 (ATLAS),e,11.6048,179.4195,118.1549,5.197782,0.0831720,0.12733291,126.5664,04/18.0/2024,2000,g  8.5,4.0
# From MPEC 2024-GJ3
C/2019 L3 (ATLAS),h,01/09.8395/2022,48.3446,290.7485,171.6640,1.002552,3.555197,2000,4.5,4.0
# From MPEC 2020-K19
P/2019 LM4 (Palomar),e,36.4175,72.8414,68.2663,5.704386,0.0723420,0.58538898,127.7292,04/18.0/2024,2000,g  9.5,4.0
# From MPC118095
C/2019 LB7 (Kleyna),e,164.2884,3.9214,336.6720,34.85641,0.0047894,0.92841351,8.8578,04/18.0/2024,2000,g 17.0,4.0
# From MPEC 2024-DC6
P/2019 M2 (ATLAS),e,12.2664,307.6109,332.5258,3.029958,0.1868741,0.64729049,329.5069,04/18.0/2024,2000,g 21.2,4.0
# From MPC118095
C/2019 M3 (ATLAS),e,99.5702,154.9759,87.9197,4837,0.0000029,0.99949877,0.0000,12/31.3926/2018,2000,g 12.2,4.0
# From MPEC 2023-JA2
C/2019 M4 (TESS),h,09/11.5112/2019,65.6782,52.6495,260.3698,1.002322,9.190241,2000,5.0,4.0
# From MPEC 2023-C45
C/2019 N1 (ATLAS),e,82.4524,13.5576,193.3765,1156,0.0000251,0.99852609,0.0000,11/30.8957/2020,2000,g  7.5,4.0
# From MPEC 2023-CD8
A/2019 N2,e,89.3491,276.1837,347.1544,1412,0.0000186,0.99862187,0.0000,08/22.6457/2019,2000,g 12.5,2.0
# From MPEC 2022-A21
C/2019 NJ3 (Lemmon),h,10/22.7387/2020,99.3865,142.4838,246.8934,1.001920,4.363370,2000,9.0,4.0
# From MPEC 2024-GJ3
C/2019 O2 (PANSTARRS),e,93.3124,48.2577,129.6081,58.36028,0.0022107,0.83409314,0.8343,04/18.0/2024,2000,g  5.0,4.0
# From MPEC 2024-F34
C/2019 O3 (Palomar),h,03/09.5208/2021,89.8104,300.4499,60.1306,1.004114,8.821387,2000,3.5,4.0
# From MPEC 2021-P47
A/2019 O4,e,115.0658,354.9284,61.8678,33.26083,0.0051381,0.89037807,7.8512,04/18.0/2024,2000,g 15.5,2.0
# From MPEC 2024-EF7
C/2019 Q1 (Lemmon),h,07/21.3853/2020,155.7312,42.4566,56.2420,1.001667,5.004973,2000,8.5,4.0
# From MPC117072
A/2019 Q2,e,159.0128,188.0457,176.4569,58.39792,0.0022086,0.97836013,0.0000,07/22.5818/2019,2000,g 18.0,2.0
# From MPC117072
P/2019 S2 (PANSTARRS),e,10.4646,93.1853,217.0787,4.745166,0.0953514,0.20504789,179.6532,04/18.0/2024,2000,g 13.5,4.0
# From MPEC 2022-CN4
P/2019 S3 (PANSTARRS),e,8.6938,150.1625,213.0674,3.415167,0.1561659,0.47099865,264.7340,04/18.0/2024,2000,g 18.3,4.0
# From MPEC 2021-S45
C/2019 S4 (Lemmon),e,92.1059,63.1581,71.3725,240.5238,0.0002642,0.98569106,0.0000,04/08.5008/2020,2000,g 11.0,4.0
# From MPEC 2023-N01
A/2019 T1,e,120.8605,6.9434,91.0467,38.83801,0.0040721,0.88982376,4.8417,04/18.0/2024,2000,g 13.0,2.0
# From MPEC 2023-R20
C/2019 T2 (Lemmon),e,111.4365,155.6557,239.4227,5012,0.0000028,0.99947219,0.0000,04/22.6635/2021,2000,g  9.0,4.0
# From MPEC 2023-UR6
C/2019 T3 (ATLAS),e,121.8441,139.5332,112.4619,3372,0.0000050,0.99823456,0.0000,03/04.3110/2021,2000,g  6.8,4.0
# From MPEC 2024-GJ3
C/2019 T4 (ATLAS),e,53.6293,199.9332,351.1315,896.6967,0.0000367,0.99527123,0.0000,06/08.7254/2022,2000,g  5.0,4.0
# From MPEC 2021-P47
P/2019 T5 (ATLAS),e,33.4953,247.6126,189.5857,8.001502,0.0435458,0.80979751,74.9149,04/18.0/2024,2000,g 15.0,4.0
# From MPEC 2021-P47
P/2019 T6 (PANSTARRS),e,18.6992,71.2471,329.0140,5.440018,0.0776790,0.62299418,125.9944,04/18.0/2024,2000,g 15.5,4.0
# From MPC118096
P/2019 U4 (PANSTARRS),e,11.6980,200.0185,181.0451,3.519716,0.1492597,0.47596640,249.5010,04/18.0/2024,2000,g 19.0,4.0
# From MPEC 2024-GJ3
C/2019 U5 (PANSTARRS),h,03/29.7035/2023,113.5147,2.6320,181.4702,1.000930,3.623899,2000,4.5,4.0
# From MPEC 2022-H04
C/2019 U6 (Lemmon),e,60.9656,235.7894,329.4988,318.8915,0.0001731,0.99714348,0.0000,06/18.2719/2020,2000,g 10.0,4.0
# From MPEC 2022-N37
C/2019 V1 (Borisov),e,61.9352,83.1508,51.1712,1821,0.0000127,0.99830092,0.0000,07/16.8093/2020,2000,g 11.0,4.0
# From MPEC 2022-L66
P/2019 V2 (Groeller),e,11.8074,189.1739,335.6515,7.495851,0.0480256,0.33134006,61.4366,04/18.0/2024,2000,g 10.0,4.0
# From MPEC 2023-A50
P/2019 W1 (PANSTARRS),e,23.4743,35.3756,18.7959,4.548788,0.1015922,0.26729801,183.3240,04/18.0/2024,2000,g 12.9,4.0
# From MPEC 2021-P47
P/2019 X1 (Pruyne),e,10.2500,43.6797,36.8581,6.176042,0.0642153,0.30394059,111.1364,04/18.0/2024,2000,g 10.4,4.0
# From MPEC 2020-C98
P/2019 X2 (Pan-STARRS),e,15.8954,250.8406,213.4554,3.635823,0.1421674,0.50013032,226.1622,04/18.0/2024,2000,g 18.0,4.0
# From MPC119999
C/2019 Y1 (ATLAS),e,73.3710,31.5365,57.9092,87.30819,0.0012082,0.99051913,0.0000,03/16.5094/2020,2000,g 13.7,4.0
# From MPEC 2020-C98
P/2019 Y3 (Catalina),e,24.6003,139.3016,2.5771,3.014543,0.1883094,0.69114189,299.8940,04/18.0/2024,2000,g 18.5,4.0
# From MPEC 2024-A43
C/2019 Y4 (ATLAS),e,45.0867,120.7233,177.4417,352.2103,0.0001491,0.99927221,0.0000,05/30.5178/2020,2000,g 11.8,6.0
# From MPEC 2020-L06
C/2019 Y4-A (ATLAS),h,05/30.5536/2020,45.5263,121.0874,177.2753,1.001407,0.254495,2000,11.6,6.0
# From MPEC 2023-J29
C/2019 Y4-B (ATLAS),h,05/30.5268/2020,45.2166,120.8303,177.3860,1.000003,0.255808,2000,12.1,6.0
# From MPEC 2020-L06
C/2019 Y4-C (ATLAS),h,05/30.5060/2020,45.3092,120.8143,177.3085,1.002134,0.255569,2000,12.7,6.0
# From MPEC 2020-L06
C/2019 Y4-D (ATLAS),e,45.3573,121.1830,177.4479,68.12061,0.0017530,0.99625844,0.0000,05/30.6264/2020,2000,g 12.5,6.0
# From MPEC 2023-A50
C/2019 Y5 (PANSTARRS),e,82.7611,51.7501,303.6065,718.3018,0.0000512,0.99314275,0.0000,08/17.4360/2019,2000,g 11.0,4.0
# From MPEC 2023-A50
A/2020 A1,e,149.0335,119.1415,302.4362,25.53531,0.0076382,0.93471441,12.2170,04/18.0/2024,2000,g 18.0,2.0
# From MPEC 2022-YN2
C/2020 A2 (Iwamoto),e,120.5649,286.2441,68.0391,1180,0.0000243,0.99917489,0.0000,01/08.1780/2020,2000,g 13.5,4.0
# From MPEC 2023-A50
C/2020 A3 (ATLAS),h,06/28.4198/2019,146.6456,120.8043,268.3056,1.000121,5.755722,2000,8.0,4.0
# From MPEC 2022-P91
P/2020 A4 (PANSTARRS-Lemmon),e,24.9936,312.3413,144.8012,8.196612,0.0420003,0.65433801,67.5101,04/18.0/2024,2000,g 15.0,4.0
# From MPEC 2020-N08
A/2020 B1,e,18.5256,309.8980,154.7591,51.65128,0.0026551,0.96633772,4.1794,04/18.0/2024,2000,g 21.0,2.0
# From MPEC 2020-HN5
C/2020 B2 (Lemmon),e,55.7524,354.2646,143.5943,67.66676,0.0017707,0.95923687,2.7326,04/18.0/2024,2000,g 10.0,4.0
# From MPEC 2022-N37
C/2020 B3 (Rankin),e,20.7082,185.8205,324.8831,948.5160,0.0000337,0.99648766,0.0000,10/19.8266/2019,2000,g 13.0,4.0
# From MPEC 2023-KD6
P/2020 B4 (Sheppard),e,11.6072,185.9733,341.9906,7.968235,0.0438188,0.19219507,38.6391,04/18.0/2024,2000,g 10.5,4.0
# From MPEC 2024-GJ3
C/2020 F2 (ATLAS),h,07/13.8776/2022,163.5895,250.3021,48.2897,1.004561,8.815137,2000,4.5,4.0
# From MPEC 2021-O56
C/2020 F3 (NEOWISE),e,129.1488,61.0948,37.3903,379.7584,0.0001332,0.99922339,0.0000,07/04.1847/2020,2000,g  7.5,5.2
# From MPEC 2024-BE0
C/2020 F5 (MASTER),e,52.2102,350.5052,310.6744,170.0492,0.0004445,0.97455749,0.0000,03/16.9704/2021,2000,g  6.5,3.2
# From MPEC 2020-L06
C/2020 F6 (PANSTARRS),e,174.5832,207.8910,344.4579,375.9051,0.0001352,0.99068633,0.0000,04/11.3921/2020,2000,g 14.5,2.8
# From MPEC 2024-A43
C/2020 F7 (Lemmon),e,93.9593,321.8501,227.9508,555.1448,0.0000754,0.99039402,0.0000,11/13.6239/2021,2000,g  7.0,4.0
# From MPEC 2023-J29
C/2020 F8 (SWAN),h,05/26.8050/2020,110.5761,259.8257,68.0743,1.000135,0.430243,2000,10.0,4.0
# From MPEC 2020-L06
P/2020 G1 (Pimentel),e,18.5115,240.1107,207.6176,3.607693,0.1438334,0.86066845,214.5644,04/18.0/2024,2000,g 17.0,4.0
# From MPEC 2022-YB4
C/2020 H2 (Pruyne),e,124.8359,277.6706,26.6275,184.8168,0.0003923,0.99551091,0.0000,04/27.6742/2020,2000,g 14.0,3.2
# From MPEC 2020-HM1
C/2020 H3 (Wierzchos),p,06/05.7162/2020,62.5292,30.4456,2.300288,270.6227,2000,13.5,4.0
# From MPEC 2020-L06
C/2020 H4 (Leonard),e,84.4968,307.5803,117.5211,47.81614,0.0029809,0.98065988,0.0000,08/29.5805/2020,2000,g 15.0,3.2
# From MPEC 2024-F34
C/2020 H5 (Robinson),e,70.2526,210.6265,326.2961,4541,0.0000032,0.99794334,0.0000,12/10.1860/2020,2000,g  5.0,4.0
# From MPEC 2024-AF0
C/2020 H6 (ATLAS),e,79.9784,213.7176,20.2534,3278,0.0000053,0.99856625,0.0000,09/30.2055/2021,2000,g  8.0,3.2
# From MPEC 2020-KB7
C/2020 H7 (Lemmon),e,135.9235,323.5194,82.6780,1405,0.0000187,0.99685380,0.0000,06/02.9510/2020,2000,g 11.0,4.0
# From MPEC 2021-N06
C/2020 H8 (PANSTARRS),e,99.7042,68.4413,128.8994,599.6097,0.0000671,0.99220966,0.0000,06/04.5858/2020,2000,g 10.5,4.0
# From MPEC 2022-ED3
A/2020 H9,e,137.8785,213.1767,312.7562,361.6115,0.0001433,0.99289724,0.0000,12/21.8851/2019,2000,g 18.0,2.0
# From MPEC 2023-HN7
C/2020 H11 (PANSTARRS-Lemmon),h,09/14.2053/2020,151.3886,303.0481,91.4250,1.001432,7.623955,2000,8.5,4.0
# From MPEC 2023-KD6
C/2020 J1 (SONEAR),h,04/18.5144/2021,142.3059,226.6100,341.6844,1.000420,3.349720,2000,8.5,3.2
# From MPEC 2024-GJ3
C/2020 K1 (PANSTARRS),e,89.6731,94.3625,213.9817,7955,0.0000014,0.99961364,0.0000,05/09.0503/2023,2000,g  5.5,4.0
# From MPEC 2021-N06
C/2020 K2 (PANSTARRS),h,08/05.8779/2020,91.0056,288.4145,67.3432,1.002637,8.880574,2000,10.8,4.0
# From MPEC 2020-KF9
C/2020 K3 (Leonard),p,06/01.0032/2020,129.0152,64.4924,1.583069,28.3546,2000,14.5,4.0
# From MPEC 2020-L06
C/2020 K4 (PANSTARRS),e,125.5853,264.2501,308.8560,23.96769,0.0083997,0.92696051,12.6468,04/18.0/2024,2000,g 16.5,4.0
# From MPEC 2021-R75
C/2020 K5 (PANSTARRS),h,06/05.1214/2021,67.0848,86.1501,249.6279,1.001157,1.538227,2000,11.0,4.0
# From MPEC 2023-N01
C/2020 K6 (Rankin),h,09/15.6179/2021,103.6431,291.5781,44.3265,1.003320,5.868226,2000,8.0,4.0
# From MPEC 2023-A50
C/2020 K7 (PANSTARRS),e,32.0442,286.1069,358.1996,96.74762,0.0010357,0.93391172,1.6934,04/18.0/2024,2000,g  8.0,4.0
# From MPEC 2021-P47
C/2020 K8 (Catalina-ATLAS),h,09/15.2203/2020,31.4368,181.4788,259.9887,1.000241,0.471095,2000,15.0,3.2
# From MPEC 2021-BE3
P/2020 K9 (Lemmon-PANSTARRS),e,23.2025,166.3134,197.0705,4.205030,0.1143011,0.32083690,132.6710,04/18.0/2024,2000,g 12.5,4.0
# From MPEC 2023-C45
P/2020 M1 (PANSTARRS),e,8.5334,142.6024,72.6064,5.315446,0.0804256,0.47306027,126.8329,04/18.0/2024,2000,g 14.5,4.0
# From MPEC 2022-H30
C/2020 M3 (ATLAS),e,23.4709,71.1743,328.5901,27.21432,0.0069424,0.95332035,8.8168,04/18.0/2024,2000,g 14.5,4.0
# From MPEC 2023-N01
A/2020 M4,h,11/23.8057/2020,160.1176,348.6232,104.5792,1.000829,5.946758,2000,14.5,2.0
# From MPC xxxxx
